ONEWEB-0113             
1 48050U 21025J   21178.39388145 -.00447593  00000-0 -55392+0 0  9994
2 48050  87.8278 321.3049 0006775 326.3742  33.6987 13.67378180 15144
ONEWEB-0112             
1 48051U 21025K   21178.58334491  .00000015  00000-0  00000+0 0  9999
2 48051  87.8568 321.2904 0005709 334.3394 152.6395 13.62324013 15195
ONEWEB-0156             
1 48052U 21025L   21178.58334491  .00000015  00000-0  00000+0 0  9990
2 48052  87.8365 321.2643 0009099 319.3078  96.2381 13.67458122 15168
ONEWEB-0161             
1 48053U 21025M   21178.58334491  .00000015  00000-0  00000+0 0  9991
2 48053  87.9215 321.2432 0006622 337.3308 321.7722 13.64213745 15101
ONEWEB-0158             
1 48054U 21025N   21178.58334491  .00000015  00000-0  00000+0 0  9992
2 48054  87.8377 321.2426 0006741 334.8702 356.7803 13.76895530 15205
ONEWEB-0157             
1 48055U 21025P   21178.58334491  .00000015  00000-0  00000+0 0  9993
2 48055  87.8144 321.2771 0005773 311.6298 221.0447 13.63949889 15175
ONEWEB-0162             
1 48056U 21025Q   21178.58334491  .00000015  00000-0  00000+0 0  9994
2 48056  87.7881 321.1427 0006921 315.7811  51.4567 13.69836823 15090
ONEWEB-0155             
1 48057U 21025R   21178.58334491  .00000015  00000-0  00000+0 0  9995
2 48057  87.9400 321.2858 0008288 312.5556  68.5832 13.76839382 15273
ONEWEB-0149             
1 48058U 21025S   21178.58334491  .00000014  00000-0  00000+0 0  9995
2 48058  87.8225 321.2368 0008045 344.4591  53.6633 13.56398784 15108
ONEWEB-0148             
1 48059U 21025T   21178.58334491  .00000015  00000-0  00000+0 0  9997
2 48059  87.8392 321.2497 0007790 312.2217 307.7563 13.67562674 15187
ONEWEB-0160             
1 48060U 21025U   21178.58334491 -.00038607  00000-0 -44442-1 0  9999
2 48060  87.7836 321.1755 0004882 340.4760  41.2411 13.69700649  3392
ONEWEB-0163             
1 48061U 21025V   21178.58334491  .00000015  00000-0  00000+0 0  9990
2 48061  87.8532 321.2965 0009496 305.7540 174.9863 13.74994259 15258
ONEWEB-0159             
1 48062U 21025W   21178.58334491  .00000015  00000-0  00000+0 0  9991
2 48062  87.8038 321.2725 0003868 302.9348 240.8380 13.69439858 15199
ONEWEB-0164             
1 48063U 21025X   21178.58334491  .00000015  00000-0  00000+0 0  9992
2 48063  87.8034 321.1950 0008658 314.2606 126.7619 13.66264581 15160
ONEWEB-0167             
1 48064U 21025Y   21178.58334491  .00000015  00000-0  00000+0 0  9993
2 48064  87.8315 321.2105 0006926 335.1043 129.1975 13.66676023 15147
ONEWEB-0166             
1 48065U 21025Z   21178.58334491  .00000015  00000-0  00000+0 0  9994
2 48065  87.8507 321.3296 0009090 311.1545 135.9912 13.67134793 15240
ONEWEB-0151             
1 48066U 21025AA  21178.58334491  .00000015  00000-0  00000+0 0  9995
2 48066  87.8393 321.2985 0005802 295.8325  43.8460 13.64751672 15185
ONEWEB-0170             
1 48067U 21025AB  21177.85820602 -.00408051  00000-0 -46095+0 0  9997
2 48067  87.8368 321.4067 0008739 306.9383  53.0979 13.73096581 15045
ONEWEB-0168             
1 48068U 21025AC  21178.58334491  .00000015  00000-0  00000+0 0  9997
2 48068  87.7863 321.1253 0005716 332.6703 139.2449 13.71498161 15107
ONEWEB-0173             
1 48069U 21025AD  21178.58334491 -.00909038  00000-0 -65243+0 0  9993
2 48069  87.9394 321.1369 0004036 313.5323 302.9124 14.00013610 15268
ONEWEB-0171             
1 48070U 21025AE  21178.58334491  .00000015  00000-0  00000+0 0  9990
2 48070  87.8286 321.2630 0008246 325.9291 248.8206 13.65186935 15214
ONEWEB-0172             
1 48071U 21025AF  21178.58334491 -.00355684  00000-0 -12096+0 0  9996
2 48071  87.8019 320.5570 0004242 296.8255 139.4593 14.38907951 15340
ONEWEB-0174             
1 48072U 21025AG  21178.58334491  .00000016  00000-0  00000+0 0  9993
2 48072  87.8688 321.1807 0009047 288.2628 225.4357 13.90582123 15318
ONEWEB-0175             
1 48073U 21025AH  21178.58334491  .00000014  00000-0  00000+0 0  9992
2 48073  87.8375 321.2364 0007632 338.8255 318.7538 13.49977045 15094
ONEWEB-0177             
1 48074U 21025AJ  21178.58334491  .00000015  00000-0  00000+0 0  9994
2 48074  87.8797 321.3197 0009699 289.8509 199.0676 13.70542294 15260
ONEWEB-0178             
1 48075U 21025AK  21178.58334491  .00000015  00000-0  00000+0 0  9995
2 48075  87.8952 321.3337 0008435 292.7917 298.6897 13.74680411 15307
ONEWEB-0108             
1 48076U 21025AL  21178.58334491 -.00038451  00000-0 -45613-1 0  9994
2 48076  87.8318 321.3231 0008178 298.5192 321.2753 13.67865366  3408
ONEWEB-0169             
1 48077U 21025AM  21178.58334491  .00000015  00000-0  00000+0 0  9997
2 48077  87.8217 321.2207 0009059 315.1736 171.9211 13.65452580 15105
ONEWEB-0176             
1 48210U 21031A   21178.58334491 -.00964364  00000-0 -34740+0 0  9999
2 48210  87.6091 292.7347 0010274  67.3988 130.2493 14.36932273  3507
ONEWEB-0184             
1 48211U 21031B   21178.58334491 -.00912772  00000-0 -33327+0 0  9996
2 48211  87.5997 292.7213 0011343  50.7377  37.2791 14.36076619  3498
ONEWEB-0179             
1 48212U 21031C   21178.58334491 -.00943524  00000-0 -30774+0 0  9999
2 48212  87.6401 292.7444 0012136  70.6256 193.0327 14.41810907  3559
ONEWEB-0180             
1 48213U 21031D   21178.58334491 -.00922502  00000-0 -36893+0 0  9991
2 48213  87.5267 292.7886 0009823  61.9352  66.8552 14.31489075  3495
ONEWEB-0218             
1 48214U 21031E   21178.58334491 -.00925570  00000-0 -27682+0 0  9996
2 48214  87.6686 292.7304 0012434  38.0617 337.4206 14.46006768  3705
ONEWEB-0209             
1 48215U 21031F   21178.58334491 -.00890241  00000-0 -26954+0 0  9994
2 48215  87.6284 292.7356 0010997  57.1888 324.5347 14.45301351  3563
ONEWEB-0198             
1 48216U 21031G   21178.58334491 -.00796640  00000-0 -20702+0 0  9998
2 48216  87.6362 292.6739 0007863  58.4120 229.5397 14.52758325  3829
ONEWEB-0189             
1 48217U 21031H   21178.58334491 -.00952153  00000-0 -38187+0 0  9998
2 48217  87.5633 292.7648 0012851  56.0922  80.0035 14.31422401  3499
ONEWEB-0196             
1 48218U 21031J   21178.58334491 -.00866310  00000-0 -35059+0 0  9993
2 48218  87.5139 292.7083 0009725  64.8970  55.2800 14.30695908  3510
ONEWEB-0183             
1 48219U 21031K   21178.58334491 -.00880909  00000-0 -29469+0 0  9992
2 48219  87.5937 292.7290 0008414  66.1661 283.9789 14.40369746  3530
ONEWEB-0185             
1 48220U 21031L   21178.58334491 -.00972849  00000-0 -39757+0 0  9990
2 48220  87.5644 292.7689 0010604  49.6370 296.1073 14.30541226  3509
ONEWEB-0187             
1 48221U 21031M   21178.58334491 -.00864938  00000-0 -31904+0 0  9996
2 48221  87.5597 292.7027 0011432  63.4551 154.3084 14.35403452  3496
ONEWEB-0192             
1 48222U 21031N   21178.58334491 -.01024813  00000-0 -45826+0 0  9996
2 48222  87.5032 292.6886 0009467  57.6466 140.9893 14.26055595  3500
ONEWEB-0219             
1 48223U 21031P   21178.58334491 -.00928125  00000-0 -27514+0 0  9999
2 48223  87.6712 292.7341 0012019  39.2529 352.7183 14.46449195  3529
ONEWEB-0202             
1 48224U 21031Q   21178.58334491 -.00922936  00000-0 -28287+0 0  9992
2 48224  87.6308 292.7471 0012685  54.5301  81.5219 14.44800672  3528
ONEWEB-0204             
1 48225U 21031R   21178.58334491 -.00948900  00000-0 -36271+0 0  9994
2 48225  87.5928 292.7358 0008902  58.3915  57.2040 14.33889012  3503
ONEWEB-0205             
1 48226U 21031S   21178.58334491 -.00906805  00000-0 -34890+0 0  9998
2 48226  87.5640 292.7451 0013148  57.6239 262.4750 14.33389579  3521
ONEWEB-0206             
1 48227U 21031T   21178.58334491 -.00933358  00000-0 -39688+0 0  9992
2 48227  87.5269 292.7320 0010305  65.3207 167.8297 14.28364201  3496
ONEWEB-0182             
1 48228U 21031U   21178.58334491 -.00949459  00000-0 -23285+0 0  9998
2 48228  87.7233 292.6745 0009510  62.3976 303.6898 14.55478360  3585
ONEWEB-0186             
1 48229U 21031V   21178.58334491 -.00935463  00000-0 -26604+0 0  9997
2 48229  87.6673 292.7051 0009245  46.6947 109.5552 14.48486975  3552
ONEWEB-0181             
1 48230U 21031W   21178.58334491 -.00969261  00000-0 -38902+0 0  9996
2 48230  87.5911 292.8267 0011658  62.5939 332.6674 14.31449173  3518
ONEWEB-0188             
1 48231U 21031X   21178.58334491 -.01151435  00000-0 -57150+0 0  9990
2 48231  87.5000 292.6462 0008719  56.9951 249.2323 14.20413635  3581
ONEWEB-0220             
1 48232U 21031Y   21178.58334491 -.00883457  00000-0 -24383+0 0  9998
2 48232  87.6512 292.7173 0012682  42.4061  95.2923 14.49707360  3528
ONEWEB-0165             
1 48233U 21031Z   21178.58334491 -.00908815  00000-0 -27475+0 0  9990
2 48233  87.6313 292.7529 0012239  55.8784  75.4682 14.45427603  3539
ONEWEB-0199             
1 48234U 21031AA  21178.58334491 -.00956133  00000-0 -34577+0 0  9998
2 48234  87.5960 292.7135 0008738  58.5507 275.1850 14.36718637  3583
ONEWEB-0203             
1 48235U 21031AB  21178.58334491 -.00950887  00000-0 -38189+0 0  9992
2 48235  87.5620 292.7400 0012976  56.9202 107.4805 14.31346413  3519
ONEWEB-0197             
1 48236U 21031AC  21178.58334491 -.00873377  00000-0 -37423+0 0  9991
2 48236  87.5173 292.6941 0010235  71.5883 188.1804 14.27769823  3497
ONEWEB-0194             
1 48237U 21031AD  21178.58334491 -.00914325  00000-0 -27994+0 0  9993
2 48237  87.6278 292.7473 0009579  64.2192 220.7246 14.44843830  3546
ONEWEB-0193             
1 48238U 21031AE  21178.58334491 -.00928444  00000-0 -33145+0 0  9996
2 48238  87.6020 292.7465 0009988  46.1323 153.8150 14.37269789  3505
ONEWEB-0191             
1 48239U 21031AF  21178.58334491 -.01164035  00000-0 -54731+0 0  9990
2 48239  87.5173 292.6830 0010905  66.1466 190.9010 14.23299368  3496
ONEWEB-0195             
1 48240U 21031AG  21178.58334491 -.01048099  00000-0 -47449+0 0  9991
2 48240  87.5021 292.6775 0008873  50.8815   6.1751 14.25491246  3487
